start=new Date('2022-03-17T00:00:00.000Z').valueOf();
sats=[{"OBJECT_ID":"2021-104C","MEAN_MOTION_DOT":"-0.00012351","ARG_OF_PERICENTER":"43.6782","ECCENTRICITY":"0.00020920","TIME_SYSTEM":"UTC","SEMIMAJOR_AXIS":"6917.967","REF_FRAME":"TEME","CLASSIFICATION_TYPE":"U","TLE_LINE1":"1 49410U 21104C   22075.83334491 -.00012351  00000-0 -75977-3 0  9999","MEAN_MOTION":"15.08811686","EPOCH":"2022-03-16T20:00:01.000224","PERIAPSIS":"538.385","MEAN_ELEMENT_THEORY":"SGP4","MEAN_MOTION_DDOT":"0.0000000000000","TLE_LINE2":"2 49410  53.2148 275.7463 0002092  43.6782  50.9503 15.08811686  3582","COUNTRY_CODE":"US","OBJECT_NAME":"STARLINK-3147","OBJECT_TYPE":"PAYLOAD","NORAD_CAT_ID":"49410","INCLINATION":"53.2148","RA_OF_ASC_NODE":"275.7463","SITE":"AFETR","DECAY_DATE":null,"PERIOD":"95.439","LAUNCH_DATE":"2021-11-13","MEAN_ANOMALY":"50.9503","REV_AT_EPOCH":"358","RCS_SIZE":"LARGE","CENTER_NAME":"EARTH","ELEMENT_SET_NO":"999","EPHEMERIS_TYPE":"0","FILE":"3362094","BSTAR":"-0.00075977000000","GP_ID":"198923011","APOAPSIS":"541.279"},{"REV_AT_EPOCH":"358","RCS_SIZE":"LARGE","SITE":"AFETR","RA_OF_ASC_NODE":"265.7410","INCLINATION":"53.2151","NORAD_CAT_ID":"49411","MEAN_ANOMALY":"78.6100","PERIOD":"95.439","LAUNCH_DATE":"2021-11-13","DECAY_DATE":null,"ELEMENT_SET_NO":"999","EPHEMERIS_TYPE":"0","APOAPSIS":"541.150","GP_ID":"198923760","BSTAR":"-0.00027761000000","FILE":"3362094","CENTER_NAME":"EARTH","ECCENTRICITY":"0.00019540","ARG_OF_PERICENTER":"51.0290","TIME_SYSTEM":"UTC","MEAN_MOTION_DOT":"-0.00004702","SEMIMAJOR_AXIS":"6917.934","OBJECT_ID":"2021-104D","OBJECT_NAME":"STARLINK-3162","OBJECT_TYPE":"PAYLOAD","COUNTRY_CODE":"US","TLE_LINE2":"2 49411  53.2151 265.7410 0001954  51.0290  78.6100 15.08822602  3581","MEAN_MOTION":"15.08822602","CLASSIFICATION_TYPE":"U","TLE_LINE1":"1 49411U 21104D   22075.83334491 -.00004702  00000-0 -27761-3 0  9999","REF_FRAME":"TEME","MEAN_MOTION_DDOT":"0.0000000000000","MEAN_ELEMENT_THEORY":"SGP4","PERIAPSIS":"538.447","EPOCH":"2022-03-16T20:00:01.000224"},{"OBJECT_ID":"2021-104E","SEMIMAJOR_AXIS":"6917.936","ECCENTRICITY":"0.00020300","ARG_OF_PERICENTER":"44.6083","TIME_SYSTEM":"UTC","MEAN_MOTION_DOT":"-0.00014674","MEAN_ELEMENT_THEORY":"SGP4","MEAN_MOTION_DDOT":"0.0000000000000","PERIAPSIS":"538.396","EPOCH":"2022-03-16T20:00:01.000224","MEAN_MOTION":"15.08821909","CLASSIFICATION_TYPE":"U","TLE_LINE1":"1 49412U 21104E   22075.83334491 -.00014674  00000-0 -90619-3 0  9991","REF_FRAME":"TEME","OBJECT_NAME":"STARLINK-3144","OBJECT_TYPE":"PAYLOAD","COUNTRY_CODE":"US","TLE_LINE2":"2 49412  53.2181 275.7365 0002030  44.6083  29.9651 15.08821909  3599","MEAN_ANOMALY":"29.9651","LAUNCH_DATE":"2021-11-13","PERIOD":"95.439","DECAY_DATE":null,"SITE":"AFETR","RA_OF_ASC_NODE":"275.7365","NORAD_CAT_ID":"49412","INCLINATION":"53.2181","RCS_SIZE":"LARGE","REV_AT_EPOCH":"359","CENTER_NAME":"EARTH","APOAPSIS":"541.205","GP_ID":"198922669","FILE":"3362094","BSTAR":"-0.00090619000000","ELEMENT_SET_NO":"999","EPHEMERIS_TYPE":"0"},{"CENTER_NAME":"EARTH","ELEMENT_SET_NO":"999","EPHEMERIS_TYPE":"0","BSTAR":"-0.00016616000000","FILE":"3362094","GP_ID":"198923272","APOAPSIS":"541.193","INCLINATION":"53.2163","NORAD_CAT_ID":"49413","RA_OF_ASC_NODE":"265.7437","SITE":"AFETR","DECAY_DATE":null,"PERIOD":"95.438","LAUNCH_DATE":"2021-11-13","MEAN_ANOMALY":"99.1751","REV_AT_EPOCH":"358","RCS_SIZE":"LARGE","REF_FRAME":"TEME","TLE_LINE1":"1 49413U 21104F   22075.83334491 -.00002932  00000-0 -16616-3 0  9991","CLASSIFICATION_TYPE":"U","MEAN_MOTION":"15.08838909","EPOCH":"2022-03-16T20:00:01.000224","PERIAPSIS":"538.304","MEAN_MOTION_DDOT":"0.0000000000000","MEAN_ELEMENT_THEORY":"SGP4","TLE_LINE2":"2 49413  53.2163 265.7437 0002088  50.4585  99.1751 15.08838909  3581","COUNTRY_CODE":"US","OBJECT_TYPE":"PAYLOAD","OBJECT_NAME":"STARLINK-3157","OBJECT_ID":"2021-104F","MEAN_MOTION_DOT":"-0.00002932","ARG_OF_PERICENTER":"50.4585","TIME_SYSTEM":"UTC","ECCENTRICITY":"0.00020880","SEMIMAJOR_AXIS":"6917.884"},{"EPHEMERIS_TYPE":"0","ELEMENT_SET_NO":"999","GP_ID":"198923511","FILE":"3362094","BSTAR":"-0.00080810000000","APOAPSIS":"541.200","CENTER_NAME":"EARTH","REV_AT_EPOCH":"358","RCS_SIZE":"LARGE","NORAD_CAT_ID":"49414","INCLINATION":"53.2136","SITE":"AFETR","RA_OF_ASC_NODE":"275.7451","DECAY_DATE":null,"MEAN_ANOMALY":"64.4621","PERIOD":"95.437","LAUNCH_DATE":"2021-11-13","COUNTRY_CODE":"US","TLE_LINE2":"2 49414  53.2136 275.7451 0002134  50.1039  64.4621 15.08847020  3587","OBJECT_NAME":"STARLINK-3146","OBJECT_TYPE":"PAYLOAD","TLE_LINE1":"1 49414U 21104G   22075.83334491 -.00013129  00000-0 -80810-3 0  9999","CLASSIFICATION_TYPE":"U","REF_FRAME":"TEME","MEAN_MOTION":"15.08847020","PERIAPSIS":"538.248","EPOCH":"2022-03-16T20:00:01.000224","MEAN_MOTION_DDOT":"0.0000000000000","MEAN_ELEMENT_THEORY":"SGP4","TIME_SYSTEM":"UTC","ARG_OF_PERICENTER":"50.1039","ECCENTRICITY":"0.00021340","MEAN_MOTION_DOT":"-0.00013129","SEMIMAJOR_AXIS":"6917.859","OBJECT_ID":"2021-104G"},{"OBJECT_TYPE":"PAYLOAD","OBJECT_NAME":"STARLINK-3159","TLE_LINE2":"2 49415  53.2162 265.7435 0002213  41.1477 128.4445 15.08838078  3580","COUNTRY_CODE":"US","MEAN_MOTION":"15.08838078","REF_FRAME":"TEME","TLE_LINE1":"1 49415U 21104H   22075.83334491 -.00001078  00000-0 -49625-4 0  9990","CLASSIFICATION_TYPE":"U","MEAN_ELEMENT_THEORY":"SGP4","MEAN_MOTION_DDOT":"0.0000000000000","EPOCH":"2022-03-16T20:00:01.000224","PERIAPSIS":"538.220","MEAN_MOTION_DOT":"-0.00001078","ARG_OF_PERICENTER":"41.1477","TIME_SYSTEM":"UTC","ECCENTRICITY":"0.00022130","SEMIMAJOR_AXIS":"6917.886","OBJECT_ID":"2021-104H","EPHEMERIS_TYPE":"0","ELEMENT_SET_NO":"999","APOAPSIS":"541.282","BSTAR":"-0.00004962500000","FILE":"3362094","GP_ID":"198924260","CENTER_NAME":"EARTH","REV_AT_EPOCH":"358","RCS_SIZE":"LARGE","RA_OF_ASC_NODE":"265.7435","SITE":"AFETR","INCLINATION":"53.2162","NORAD_CAT_ID":"49415","LAUNCH_DATE":"2021-11-13","PERIOD":"95.438","MEAN_ANOMALY":"128.4445","DECAY_DATE":null},{"EPHEMERIS_TYPE":"0","ELEMENT_SET_NO":"999","APOAPSIS":"541.212","FILE":"3362094","BSTAR":"-0.00069742000000","GP_ID":"198923169","CENTER_NAME":"EARTH","REV_AT_EPOCH":"358","RCS_SIZE":"LARGE","RA_OF_ASC_NODE":"275.7357","SITE":"AFETR","NORAD_CAT_ID":"49416","INCLINATION":"53.2138","PERIOD":"95.438","LAUNCH_DATE":"2021-11-13","MEAN_ANOMALY":"107.4377","DECAY_DATE":null,"OBJECT_TYPE":"PAYLOAD","OBJECT_NAME":"STARLINK-3133","TLE_LINE2":"2 49416  53.2138 275.7357 0002066  47.1538 107.4377 15.08827913  3585","COUNTRY_CODE":"US","MEAN_MOTION":"15.08827913","REF_FRAME":"TEME","TLE_LINE1":"1 49416U 21104J   22075.83334491 -.00011367  00000-0 -69742-3 0  9994","CLASSIFICATION_TYPE":"U","MEAN_MOTION_DDOT":"0.0000000000000","MEAN_ELEMENT_THEORY":"SGP4","EPOCH":"2022-03-16T20:00:01.000224","PERIAPSIS":"538.353","MEAN_MOTION_DOT":"-0.00011367","ARG_OF_PERICENTER":"47.1538","TIME_SYSTEM":"UTC","ECCENTRICITY":"0.00020660","SEMIMAJOR_AXIS":"6917.917","OBJECT_ID":"2021-104J"},{"APOAPSIS":"541.127","GP_ID":"198922773","FILE":"3362094","BSTAR":"0.00007131900000","ELEMENT_SET_NO":"999","EPHEMERIS_TYPE":"0","CENTER_NAME":"EARTH","RCS_SIZE":"LARGE","REV_AT_EPOCH":"1926","MEAN_ANOMALY":"311.6299","PERIOD":"95.438","LAUNCH_DATE":"2021-11-13","DECAY_DATE":null,"SITE":"AFETR","RA_OF_ASC_NODE":"266.1927","NORAD_CAT_ID":"49417","INCLINATION":"53.2172","OBJECT_NAME":"STARLINK-3154","OBJECT_TYPE":"PAYLOAD","COUNTRY_CODE":"US","TLE_LINE2":"2 49417  53.2172 266.1927 0001969  48.4862 311.6299 15.08833631 19264","MEAN_ELEMENT_THEORY":"SGP4","MEAN_MOTION_DDOT":"0.0000000000000","PERIAPSIS":"538.403","EPOCH":"2022-03-16T17:34:24.857760","MEAN_MOTION":"15.08833631","CLASSIFICATION_TYPE":"U","TLE_LINE1":"1 49417U 21104K   22075.73223215  .00000847  00000-0  71319-4 0  9998","REF_FRAME":"TEME","SEMIMAJOR_AXIS":"6917.900","ARG_OF_PERICENTER":"48.4862","TIME_SYSTEM":"UTC","ECCENTRICITY":"0.00019690","MEAN_MOTION_DOT":"0.00000847","OBJECT_ID":"2021-104K"},{"SITE":"AFETR","RA_OF_ASC_NODE":"275.7305","NORAD_CAT_ID":"49418","INCLINATION":"53.2130","MEAN_ANOMALY":"129.4140","PERIOD":"95.440","LAUNCH_DATE":"2021-11-13","DECAY_DATE":null,"REV_AT_EPOCH":"358","RCS_SIZE":"LARGE","CENTER_NAME":"EARTH","EPHEMERIS_TYPE":"0","ELEMENT_SET_NO":"999","APOAPSIS":"541.215","GP_ID":"198923012","BSTAR":"0.00190030000000","FILE":"3362094","OBJECT_ID":"2021-104L","ECCENTRICITY":"0.00019850","ARG_OF_PERICENTER":"45.1678","TIME_SYSTEM":"UTC","MEAN_MOTION_DOT":"0.00030059","SEMIMAJOR_AXIS":"6917.977","MEAN_MOTION":"15.08808537","CLASSIFICATION_TYPE":"U","TLE_LINE1":"1 49418U 21104L   22075.83334491  .00030059  00000-0  19003-2 0  9997","REF_FRAME":"TEME","MEAN_ELEMENT_THEORY":"SGP4","MEAN_MOTION_DDOT":"0.0000000000000","PERIAPSIS":"538.468","EPOCH":"2022-03-16T20:00:01.000224","OBJECT_NAME":"STARLINK-3111","OBJECT_TYPE":"PAYLOAD","COUNTRY_CODE":"US","TLE_LINE2":"2 49418  53.2130 275.7305 0001985  45.1678 129.4140 15.08808537  3587"},{"CENTER_NAME":"EARTH","FILE":"3362094","BSTAR":"-0.00055944000000","GP_ID":"198923761","APOAPSIS":"541.163","ELEMENT_SET_NO":"999","EPHEMERIS_TYPE":"0","DECAY_DATE":null,"LAUNCH_DATE":"2021-11-13","PERIOD":"95.437","MEAN_ANOMALY":"188.9002","NORAD_CAT_ID":"49419","INCLINATION":"53.2138","RA_OF_ASC_NODE":"275.7292","SITE":"AFETR","RCS_SIZE":"LARGE","REV_AT_EPOCH":"358","EPOCH":"2022-03-16T20:00:01.000224","PERIAPSIS":"538.321","MEAN_ELEMENT_THEORY":"SGP4","MEAN_MOTION_DDOT":"0.0000000000000","REF_FRAME":"TEME","TLE_LINE1":"1 49419U 21104M   22075.83334491 -.00009181  00000-0 -55944-3 0  9997","CLASSIFICATION_TYPE":"U","MEAN_MOTION":"15.08841136","TLE_LINE2":"2 49419  53.2138 275.7292 0002054  45.6565 188.9002 15.08841136  3588","COUNTRY_CODE":"US","OBJECT_NAME":"STARLINK-3120","OBJECT_TYPE":"PAYLOAD","OBJECT_ID":"2021-104M","SEMIMAJOR_AXIS":"6917.877","MEAN_MOTION_DOT":"-0.00009181","ARG_OF_PERICENTER":"45.6565","TIME_SYSTEM":"UTC","ECCENTRICITY":"0.00020540"}];
